[{"OBJECT_NAME":"STARLINK-5215","OBJECT_ID":"2022-175B","EPOCH":"2026-03-03T10:44:38.540256","MEAN_MOTION":15.0883766,"ECCENTRICITY":0.00012675,"INCLINATION":53.2167,"RA_OF_ASC_NODE":67.3677,"ARG_OF_PERICENTER":86.8514,"MEAN_ANOMALY":273.2624,"EPHEMERIS_TYPE":0,"CLASSIFICATION_TYPE":"U","NORAD_CAT_ID":54759,"ELEMENT_SET_NO":999,"REV_AT_EPOCH":17904,"BSTAR":4.2275963e-5,"MEAN_MOTION_DOT":3.85e-6,"MEAN_MOTION_DDOT":0},{"OBJECT_NAME":"STARLINK-5220","OBJECT_ID":"2022-175C","EPOCH":"2026-03-03T07:30:33.189696","MEAN_MOTION":15.08832219,"ECCENTRICITY":0.00013922,"INCLINATION":53.2174,"RA_OF_ASC_NODE":72.9371,"ARG_OF_PERICENTER":99.4007,"MEAN_ANOMALY":260.7143,"EPHEMERIS_TYPE":0,"CLASSIFICATION_TYPE":"U","NORAD_CAT_ID":54760,"ELEMENT_SET_NO":999,"REV_AT_EPOCH":17895,"BSTAR":-2.6945434e-5,"MEAN_MOTION_DOT":-7.17e-6,"MEAN_MOTION_DDOT":0},{"OBJECT_NAME":"STARLINK-5202","OBJECT_ID":"2022-175D","EPOCH":"2026-03-03T07:35:52.447200","MEAN_MOTION":15.08850041,"ECCENTRICITY":0.0001175,"INCLINATION":53.2154,"RA_OF_ASC_NODE":72.9577,"ARG_OF_PERICENTER":83.1918,"MEAN_ANOMALY":276.9207,"EPHEMERIS_TYPE":0,"CLASSIFICATION_TYPE":"U","NORAD_CAT_ID":54761,"ELEMENT_SET_NO":999,"REV_AT_EPOCH":17895,"BSTAR":0.00033923826,"MEAN_MOTION_DOT":5.117e-5,"MEAN_MOTION_DDOT":0},{"OBJECT_NAME":"STARLINK-5214","OBJECT_ID":"2022-175E","EPOCH":"2026-03-03T07:14:37.881312","MEAN_MOTION":15.08839431,"ECCENTRICITY":0.00013531,"INCLINATION":53.2171,"RA_OF_ASC_NODE":72.8705,"ARG_OF_PERICENTER":83.7185,"MEAN_ANOMALY":276.3962,"EPHEMERIS_TYPE":0,"CLASSIFICATION_TYPE":"U","NORAD_CAT_ID":54762,"ELEMENT_SET_NO":999,"REV_AT_EPOCH":17895,"BSTAR":-2.427422e-6,"MEAN_MOTION_DOT":-3.27e-6,"MEAN_MOTION_DDOT":0},{"OBJECT_NAME":"STARLINK-5191","OBJECT_ID":"2022-175F","EPOCH":"2026-03-03T05:49:51.725856","MEAN_MOTION":15.08841357,"ECCENTRICITY":0.00013283,"INCLINATION":53.2166,"RA_OF_ASC_NODE":73.2109,"ARG_OF_PERICENTER":92.5446,"MEAN_ANOMALY":267.5698,"EPHEMERIS_TYPE":0,"CLASSIFICATION_TYPE":"U","NORAD_CAT_ID":54763,"ELEMENT_SET_NO":999,"REV_AT_EPOCH":17894,"BSTAR":-1.3198266e-5,"MEAN_MOTION_DOT":-4.98e-6,"MEAN_MOTION_DDOT":0},{"OBJECT_NAME":"STARLINK-5458","OBJECT_ID":"2022-175G","EPOCH":"2026-03-03T06:54:47.579616","MEAN_MOTION":15.08840318,"ECCENTRICITY":0.00013448,"INCLINATION":53.2174,"RA_OF_ASC_NODE":72.7883,"ARG_OF_PERICENTER":90.3627,"MEAN_ANOMALY":269.752,"EPHEMERIS_TYPE":0,"CLASSIFICATION_TYPE":"U","NORAD_CAT_ID":54764,"ELEMENT_SET_NO":999,"REV_AT_EPOCH":17895,"BSTAR":5.1444564e-5,"MEAN_MOTION_DOT":5.31e-6,"MEAN_MOTION_DDOT":0},{"OBJECT_NAME":"STARLINK-5471","OBJECT_ID":"2022-175J","EPOCH":"2026-03-03T07:04:01.389792","MEAN_MOTION":15.0883923,"ECCENTRICITY":0.00012966,"INCLINATION":53.217,"RA_OF_ASC_NODE":72.8252,"ARG_OF_PERICENTER":89.452,"MEAN_ANOMALY":270.6621,"EPHEMERIS_TYPE":0,"CLASSIFICATION_TYPE":"U","NORAD_CAT_ID":54766,"ELEMENT_SET_NO":999,"REV_AT_EPOCH":17895,"BSTAR":2.8395617e-5,"MEAN_MOTION_DOT":1.64e-6,"MEAN_MOTION_DDOT":0},{"OBJECT_NAME":"STARLINK-5472","OBJECT_ID":"2022-175K","EPOCH":"2026-03-03T06:58:42.858048","MEAN_MOTION":15.08841782,"ECCENTRICITY":0.00013019,"INCLINATION":53.2176,"RA_OF_ASC_NODE":72.8008,"ARG_OF_PERICENTER":87.2588,"MEAN_ANOMALY":272.8553,"EPHEMERIS_TYPE":0,"CLASSIFICATION_TYPE":"U","NORAD_CAT_ID":54767,"ELEMENT_SET_NO":999,"REV_AT_EPOCH":17895,"BSTAR":1.246811e-6,"MEAN_MOTION_DOT":-2.68e-6,"MEAN_MOTION_DDOT":0},{"OBJECT_NAME":"STARLINK-5444","OBJECT_ID":"2022-175L","EPOCH":"2026-03-03T06:17:06.787104","MEAN_MOTION":15.08845545,"ECCENTRICITY":0.00013997,"INCLINATION":53.2174,"RA_OF_ASC_NODE":58.3624,"ARG_OF_PERICENTER":99.1627,"MEAN_ANOMALY":260.9524,"EPHEMERIS_TYPE":0,"CLASSIFICATION_TYPE":"U","NORAD_CAT_ID":54768,"ELEMENT_SET_NO":999,"REV_AT_EPOCH":17915,"BSTAR":-5.869705e-5,"MEAN_MOTION_DOT":-1.222e-5,"MEAN_MOTION_DDOT":0},{"OBJECT_NAME":"STARLINK-5448","OBJECT_ID":"2022-175N","EPOCH":"2026-03-03T07:24:35.480736","MEAN_MOTION":15.0884243,"ECCENTRICITY":0.00013825,"INCLINATION":53.218,"RA_OF_ASC_NODE":57.9473,"ARG_OF_PERICENTER":87.351,"MEAN_ANOMALY":272.7641,"EPHEMERIS_TYPE":0,"CLASSIFICATION_TYPE":"U","NORAD_CAT_ID":54770,"ELEMENT_SET_NO":999,"REV_AT_EPOCH":17916,"BSTAR":0.00012770982,"MEAN_MOTION_DOT":1.745e-5,"MEAN_MOTION_DDOT":0},{"OBJECT_NAME":"STARLINK-5451","OBJECT_ID":"2022-175P","EPOCH":"2026-03-03T09:46:16.131360","MEAN_MOTION":15.08845337,"ECCENTRICITY":0.00010668,"INCLINATION":53.2173,"RA_OF_ASC_NODE":67.1236,"ARG_OF_PERICENTER":86.9074,"MEAN_ANOMALY":273.2041,"EPHEMERIS_TYPE":0,"CLASSIFICATION_TYPE":"U","NORAD_CAT_ID":54771,"ELEMENT_SET_NO":999,"REV_AT_EPOCH":17904,"BSTAR":-0.00017594836,"MEAN_MOTION_DOT":-3.087e-5,"MEAN_MOTION_DDOT":0},{"OBJECT_NAME":"STARLINK-5452","OBJECT_ID":"2022-175Q","EPOCH":"2026-03-03T08:54:40.237056","MEAN_MOTION":15.08840788,"ECCENTRICITY":0.00013766,"INCLINATION":53.218,"RA_OF_ASC_NODE":57.6272,"ARG_OF_PERICENTER":88.0304,"MEAN_ANOMALY":272.0846,"EPHEMERIS_TYPE":0,"CLASSIFICATION_TYPE":"U","NORAD_CAT_ID":54772,"ELEMENT_SET_NO":999,"REV_AT_EPOCH":17917,"BSTAR":5.9963345e-5,"MEAN_MOTION_DOT":6.67e-6,"MEAN_MOTION_DDOT":0},{"OBJECT_NAME":"STARLINK-5453","OBJECT_ID":"2022-175R","EPOCH":"2026-03-03T08:23:29.572512","MEAN_MOTION":15.08839477,"ECCENTRICITY":0.00013675,"INCLINATION":53.2175,"RA_OF_ASC_NODE":72.4586,"ARG_OF_PERICENTER":83.6145,"MEAN_ANOMALY":276.5003,"EPHEMERIS_TYPE":0,"CLASSIFICATION_TYPE":"U","NORAD_CAT_ID":54773,"ELEMENT_SET_NO":999,"REV_AT_EPOCH":17896,"BSTAR":8.9545145e-5,"MEAN_MOTION_DOT":1.137e-5,"MEAN_MOTION_DDOT":0},{"OBJECT_NAME":"STARLINK-5454","OBJECT_ID":"2022-175S","EPOCH":"2026-03-03T09:26:22.815168","MEAN_MOTION":15.08841563,"ECCENTRICITY":0.00015776,"INCLINATION":53.2178,"RA_OF_ASC_NODE":57.0677,"ARG_OF_PERICENTER":94.7409,"MEAN_ANOMALY":265.3764,"EPHEMERIS_TYPE":0,"CLASSIFICATION_TYPE":"U","NORAD_CAT_ID":54774,"ELEMENT_SET_NO":999,"REV_AT_EPOCH":17918,"BSTAR":6.4033127e-5,"MEAN_MOTION_DOT":7.31e-6,"MEAN_MOTION_DDOT":0},{"OBJECT_NAME":"STARLINK-5465","OBJECT_ID":"2022-175T","EPOCH":"2026-03-03T09:53:34.120608","MEAN_MOTION":15.08840152,"ECCENTRICITY":0.00012476,"INCLINATION":53.2174,"RA_OF_ASC_NODE":72.1374,"ARG_OF_PERICENTER":96.0863,"MEAN_ANOMALY":264.0271,"EPHEMERIS_TYPE":0,"CLASSIFICATION_TYPE":"U","NORAD_CAT_ID":54775,"ELEMENT_SET_NO":999,"REV_AT_EPOCH":17897,"BSTAR":-1.2573473e-5,"MEAN_MOTION_DOT":-4.88e-6,"MEAN_MOTION_DDOT":0},{"OBJECT_NAME":"STARLINK-5470","OBJECT_ID":"2022-175U","EPOCH":"2026-03-03T09:21:43.401024","MEAN_MOTION":15.08871949,"ECCENTRICITY":0.00020803,"INCLINATION":53.2175,"RA_OF_ASC_NODE":72.0031,"ARG_OF_PERICENTER":116.0764,"MEAN_ANOMALY":244.0443,"EPHEMERIS_TYPE":0,"CLASSIFICATION_TYPE":"U","NORAD_CAT_ID":54776,"ELEMENT_SET_NO":999,"REV_AT_EPOCH":17897,"BSTAR":-0.00059127047,"MEAN_MOTION_DOT":-9.695e-5,"MEAN_MOTION_DDOT":0}]
