STARLINK-5215           
1 54759U 22175B   26062.44766829  .00000385  00000+0  42276-4 0  9999
2 54759  53.2167  67.3677 0001267  86.8514 273.2624 15.08837660179041
STARLINK-5220           
1 54760U 22175C   26062.31288414 -.00000717  00000+0 -26945-4 0  9992
2 54760  53.2174  72.9371 0001392  99.4007 260.7143 15.08832219178951
STARLINK-5202           
1 54761U 22175D   26062.31657925  .00005117  00000+0  33924-3 0  9991
2 54761  53.2154  72.9577 0001175  83.1918 276.9207 15.08850041178951
STARLINK-5214           
1 54762U 22175E   26062.30182733 -.00000327  00000+0 -24274-5 0  9991
2 54762  53.2171  72.8705 0001353  83.7185 276.3962 15.08839431178955
STARLINK-5191           
1 54763U 22175F   26062.24295979 -.00000498  00000+0 -13198-4 0  9993
2 54763  53.2166  73.2109 0001328  92.5446 267.5698 15.08841357178940
STARLINK-5458           
1 54764U 22175G   26062.28805069  .00000531  00000+0  51445-4 0  9998
2 54764  53.2174  72.7883 0001344  90.3627 269.7520 15.08840318178953
STARLINK-5471           
1 54766U 22175J   26062.29446053  .00000164  00000+0  28396-4 0  9996
2 54766  53.2170  72.8252 0001296  89.4520 270.6621 15.08839230178953
STARLINK-5472           
1 54767U 22175K   26062.29077382 -.00000268  00000+0  12468-5 0  9992
2 54767  53.2176  72.8008 0001301  87.2588 272.8553 15.08841782178959
STARLINK-5444           
1 54768U 22175L   26062.26188411 -.00001222  00000+0 -58697-4 0  9991
2 54768  53.2174  58.3624 0001399  99.1627 260.9524 15.08845545179154
STARLINK-5448           
1 54770U 22175N   26062.30874399  .00001745  00000+0  12771-3 0  9996
2 54770  53.2180  57.9473 0001382  87.3510 272.7641 15.08842430179165
STARLINK-5451           
1 54771U 22175P   26062.40713115 -.00003087  00000+0 -17595-3 0  9998
2 54771  53.2173  67.1236 0001066  86.9074 273.2041 15.08845337179043
STARLINK-5452           
1 54772U 22175Q   26062.37129904  .00000667  00000+0  59963-4 0  9997
2 54772  53.2180  57.6272 0001376  88.0304 272.0846 15.08840788179178
STARLINK-5453           
1 54773U 22175R   26062.34964783  .00001137  00000+0  89545-4 0  9999
2 54773  53.2175  72.4586 0001367  83.6145 276.5003 15.08839477178963
STARLINK-5454           
1 54774U 22175S   26062.39331962  .00000731  00000+0  64033-4 0  9996
2 54774  53.2178  57.0677 0001577  94.7409 265.3764 15.08841563179180
STARLINK-5465           
1 54775U 22175T   26062.41220047 -.00000488  00000+0 -12573-4 0  9994
2 54775  53.2174  72.1374 0001247  96.0863 264.0271 15.08840152178970
STARLINK-5470           
1 54776U 22175U   26062.39008566 -.00009695  00000+0 -59127-3 0  9996
2 54776  53.2175  72.0031 0002080 116.0764 244.0443 15.08871949178977
